FENGYUN 1C DEB          
1 36736U 99025EBJ 17345.35200244  .00000620  00000-0  36269-3 0  9997
2 36736  99.0121  23.6029 0073412 159.3447 201.0718 14.10721080474638
